ONEWEB-0283             
1 49001U 21060AL  25301.44661442  .00000101  00000+0  23077-3 0  9998
2 49001  87.8988 274.9429 0001906  90.8145 269.3204 13.16592556209127
ONEWEB-0284             
1 49002U 21060AM  25301.44029252  .00000111  00000+0  25650-3 0  9996
2 49002  87.8994 274.9300 0002258  81.9514 278.1873 13.16593730209108
ONEWEB-0285             
1 49075U 21075A   25301.52802766 -.00000278  00000+0 -80936-3 0  9994
2 49075  87.8971  36.6785 0001805 102.0052 258.1279 13.12444938204825
ONEWEB-0286             
1 49076U 21075B   25301.50993025  .00000039  00000+0  72119-4 0  9990
2 49076  87.8964  36.7174 0001596  97.8431 262.2879 13.12442548204175
ONEWEB-0287             
1 49077U 21075C   25301.56132813 -.00000015  00000+0 -71345-4 0  9993
2 49077  87.9129  51.9227 0001523  85.6737 274.4569 13.17647083203123
ONEWEB-0288             
1 49078U 21075D   25301.56194887  .00000419  00000+0  11303-2 0  9995
2 49078  87.8970  36.6668 0001854  97.3112 262.8227 13.12445721204808
ONEWEB-0289             
1 49079U 21075E   25301.37221477  .00000044  00000+0  80856-4 0  9996
2 49079  87.9118  51.9804 0002073  96.5882 263.5486 13.17648398203674
ONEWEB-0290             
1 49080U 21075F   25301.34535204  .00000045  00000+0  82468-4 0  9993
2 49080  87.9123  51.9438 0002320 103.2264 256.9127 13.17649065203085
